{
  "norad_id": 48053,
  "name": "ONEWEB-0161",
  "history": [
    {
      "epoch": "2026-03-28T22:53:39.123456Z",
      "apogee_km": 1211.0556171401104,
      "perigee_km": 1208.4626812680035,
      "latitude_deg": 2.5515696221151486e-05,
      "longitude_deg": 166.4118191594111,
      "height_km": 1212.281081992007,
      "semi_major_axis_km": 7587.896149204056,
      "eccentricity": 0.00017086,
      "inclination_deg": 87.9011,
      "raan_deg": 336.1918,
      "arg_perigee_deg": 73.5292,
      "mean_anomaly_deg": 286.6025,
      "mean_motion_rev_day": 13.13471623
    },
    {
      "epoch": "2026-03-29T04:22:44.214816Z",
      "apogee_km": 1211.0576343869907,
      "perigee_km": 1208.4519523451481,
      "latitude_deg": 6.542892468699566e-06,
      "longitude_deg": 83.86995396233814,
      "height_km": 1212.2808723551086,
      "semi_major_axis_km": 7587.891793366069,
      "eccentricity": 0.0001717,
      "inclination_deg": 87.9011,
      "raan_deg": 336.1464,
      "arg_perigee_deg": 73.8026,
      "mean_anomaly_deg": 286.3292,
      "mean_motion_rev_day": 13.13472754
    },
    {
      "epoch": "2026-03-30T04:08:46.757760Z",
      "apogee_km": 1211.0477318032135,
      "perigee_km": 1208.4678475747187,
      "latitude_deg": -1.751313031364867e-05,
      "longitude_deg": 86.1865667733172,
      "height_km": 1212.2899914468753,
      "semi_major_axis_km": 7587.894789688966,
      "eccentricity": 0.00017,
      "inclination_deg": 87.9009,
      "raan_deg": 335.9497,
      "arg_perigee_deg": 73.918,
      "mean_anomaly_deg": 286.2136,
      "mean_motion_rev_day": 13.13471976
    },
    {
      "epoch": "2026-03-30T05:58:28.489440Z",
      "apogee_km": 1211.0491585148602,
      "perigee_km": 1208.4674530160264,
      "latitude_deg": -3.151468459037839e-05,
      "longitude_deg": 58.672600429832535,
      "height_km": 1212.2904217462176,
      "semi_major_axis_km": 7587.8953057654435,
      "eccentricity": 0.00017012,
      "inclination_deg": 87.9009,
      "raan_deg": 335.9347,
      "arg_perigee_deg": 73.9257,
      "mean_anomaly_deg": 286.2059,
      "mean_motion_rev_day": 13.13471842
    },
    {
      "epoch": "2026-03-30T15:06:57.294720Z",
      "apogee_km": 1211.0650606322833,
      "perigee_km": 1208.459831236516,
      "latitude_deg": 8.173158304911673e-05,
      "longitude_deg": -78.8982382802557,
      "height_km": 1212.2951214462428,
      "semi_major_axis_km": 7587.899445934399,
      "eccentricity": 0.00017167,
      "inclination_deg": 87.9008,
      "raan_deg": 335.8593,
      "arg_perigee_deg": 74.1025,
      "mean_anomaly_deg": 286.0294,
      "mean_motion_rev_day": 13.13470767
    },
    {
      "epoch": "2026-03-30T22:25:44.326848Z",
      "apogee_km": 1211.0617765073712,
      "perigee_km": 1208.4703558522087,
      "latitude_deg": -1.4938503568117521e-05,
      "longitude_deg": 171.0448544602732,
      "height_km": 1212.2998474014914,
      "semi_major_axis_km": 7587.90306617979,
      "eccentricity": 0.00017076,
      "inclination_deg": 87.9009,
      "raan_deg": 335.7987,
      "arg_perigee_deg": 74.065,
      "mean_anomaly_deg": 286.0667,
      "mean_motion_rev_day": 13.13469827
    },
    {
      "epoch": "2026-03-31T09:23:54.812832Z",
      "apogee_km": 1211.0503287988004,
      "perigee_km": 1208.4821270722723,
      "latitude_deg": 8.052431572703176e-05,
      "longitude_deg": 5.959962347496807,
      "height_km": 1212.297169639504,
      "semi_major_axis_km": 7587.903227935536,
      "eccentricity": 0.00016923,
      "inclination_deg": 87.9008,
      "raan_deg": 335.708,
      "arg_perigee_deg": 73.7845,
      "mean_anomaly_deg": 286.3471,
      "mean_motion_rev_day": 13.13469785
    },
    {
      "epoch": "2026-04-01T05:30:34.092000Z",
      "apogee_km": 1211.0445586579835,
      "perigee_km": 1208.4919873241488,
      "latitude_deg": 8.068031921537868e-06,
      "longitude_deg": 63.30377188042049,
      "height_km": 1212.2981309466006,
      "semi_major_axis_km": 7587.905272991065,
      "eccentricity": 0.0001682,
      "inclination_deg": 87.9007,
      "raan_deg": 335.5414,
      "arg_perigee_deg": 73.6304,
      "mean_anomaly_deg": 286.501,
      "mean_motion_rev_day": 13.13469254
    },
    {
      "epoch": "2026-04-02T14:25:05.846304Z",
      "apogee_km": 1211.0368940524295,
      "perigee_km": 1208.510119853614,
      "latitude_deg": -6.100194092036077e-06,
      "longitude_deg": -71.95225410651953,
      "height_km": 1212.3072519872092,
      "semi_major_axis_km": 7587.9105069530215,
      "eccentricity": 0.0001665,
      "inclination_deg": 87.9005,
      "raan_deg": 335.2692,
      "arg_perigee_deg": 73.641,
      "mean_anomaly_deg": 286.4902,
      "mean_motion_rev_day": 13.13467895
    },
    {
      "epoch": "2026-04-02T21:43:52.820544Z",
      "apogee_km": 1211.0339981079624,
      "perigee_km": 1208.506314476058,
      "latitude_deg": -3.058116477116756e-05,
      "longitude_deg": 177.9912829874994,
      "height_km": 1212.3077774393614,
      "semi_major_axis_km": 7587.90715629201,
      "eccentricity": 0.00016656,
      "inclination_deg": 87.9005,
      "raan_deg": 335.2088,
      "arg_perigee_deg": 73.83,
      "mean_anomaly_deg": 286.3012,
      "mean_motion_rev_day": 13.13468765
    },
    {
      "epoch": "2026-04-03T16:00:50.469984Z",
      "apogee_km": 1211.0459532223385,
      "perigee_km": 1208.4979333991741,
      "latitude_deg": 5.7962833735048426e-05,
      "longitude_deg": -97.15116277073876,
      "height_km": 1212.3216855742908,
      "semi_major_axis_km": 7587.908943310756,
      "eccentricity": 0.0001679,
      "inclination_deg": 87.9002,
      "raan_deg": 335.0574,
      "arg_perigee_deg": 74.5311,
      "mean_anomaly_deg": 285.6004,
      "mean_motion_rev_day": 13.13468301
    },
    {
      "epoch": "2026-04-04T04:48:42.722208Z",
      "apogee_km": 1211.040284514972,
      "perigee_km": 1208.5000049610553,
      "latitude_deg": 8.792799271425877e-06,
      "longitude_deg": 70.24962868521051,
      "height_km": 1212.3221720080608,
      "semi_major_axis_km": 7587.907144738013,
      "eccentricity": 0.00016739,
      "inclination_deg": 87.9001,
      "raan_deg": 334.9515,
      "arg_perigee_deg": 74.589,
      "mean_anomaly_deg": 285.5424,
      "mean_motion_rev_day": 13.13468768
    },
    {
      "epoch": "2026-04-05T13:43:14.266560Z",
      "apogee_km": 1211.025571213515,
      "perigee_km": 1208.5121532757057,
      "latitude_deg": -1.8397800908452162e-05,
      "longitude_deg": -65.00582373516987,
      "height_km": 1212.3299075333246,
      "semi_major_axis_km": 7587.90586224461,
      "eccentricity": 0.00016562,
      "inclination_deg": 87.8998,
      "raan_deg": 334.679,
      "arg_perigee_deg": 74.8451,
      "mean_anomaly_deg": 285.2861,
      "mean_motion_rev_day": 13.13469101
    },
    {
      "epoch": "2026-04-05T15:32:56.012928Z",
      "apogee_km": 1211.0241214363941,
      "perigee_km": 1208.5140421045453,
      "latitude_deg": 4.506953930760278e-06,
      "longitude_deg": -92.52005032437381,
      "height_km": 1212.330939146951,
      "semi_major_axis_km": 7587.906081770469,
      "eccentricity": 0.0001654,
      "inclination_deg": 87.8997,
      "raan_deg": 334.6638,
      "arg_perigee_deg": 74.8629,
      "mean_anomaly_deg": 285.2683,
      "mean_motion_rev_day": 13.13469044
    },
    {
      "epoch": "2026-04-06T04:20:48.171840Z",
      "apogee_km": 1211.0197452326165,
      "perigee_km": 1208.5101225470025,
      "latitude_deg": -3.6784065264483215e-05,
      "longitude_deg": 74.88103041853833,
      "height_km": 1212.3378349686636,
      "semi_major_axis_km": 7587.90193388981,
      "eccentricity": 0.00016537,
      "inclination_deg": 87.8996,
      "raan_deg": 334.5578,
      "arg_perigee_deg": 75.3817,
      "mean_anomaly_deg": 284.7495,
      "mean_motion_rev_day": 13.13470121
    },
    {
      "epoch": "2026-04-07T09:35:56.076576Z",
      "apogee_km": 1211.0090796086588,
      "perigee_km": 1208.5272275910193,
      "latitude_deg": 1.6995088896982548e-05,
      "longitude_deg": -5.34545221552355,
      "height_km": 1212.3573100670333,
      "semi_major_axis_km": 7587.905153599839,
      "eccentricity": 0.00016354,
      "inclination_deg": 87.8993,
      "raan_deg": 334.3156,
      "arg_perigee_deg": 75.9886,
      "mean_anomaly_deg": 284.1425,
      "mean_motion_rev_day": 13.13469285
    }
  ]
}